{
  "generated": "2026-07-03T22:08:37.745Z",
  "satellites": [
    {
      "noradId": 32487,
      "name": "THOR 5",
      "intlDes": "2008-006A",
      "owner": "NOR",
      "launchDate": "2008-02-11",
      "launchSite": "TYMSC",
      "opsStatus": "+",
      "tle1": "1 32487U 08006A   26183.65374975  .00000002  00000+0  00000+0 0  9994",
      "tle2": "2 32487   0.0391 232.1816 0002701 235.2330  47.8709  1.00272191 67472"
    },
    {
      "noradId": 36033,
      "name": "THOR 6",
      "intlDes": "2009-058B",
      "owner": "NOR",
      "launchDate": "2009-10-29",
      "launchSite": "FRGUI",
      "opsStatus": "+",
      "tle1": "1 36033U 09058B   26183.72500596  .00000001  00000+0  00000+0 0  9990",
      "tle2": "2 36033   0.0207  85.4590 0002192  39.6828  55.7759  1.00271085 61163"
    },
    {
      "noradId": 40613,
      "name": "THOR 7",
      "intlDes": "2015-022A",
      "owner": "NOR",
      "launchDate": "2015-04-26",
      "launchSite": "FRGUI",
      "opsStatus": "+",
      "tle1": "1 40613U 15022A   26183.72500596  .00000003  00000+0  00000+0 0  9999",
      "tle2": "2 40613   0.0459 214.6218 0002534 243.7289  82.7662  1.00273521 40979"
    },
    {
      "noradId": 42826,
      "name": "NORSAT 1",
      "intlDes": "2017-042B",
      "owner": "NOR",
      "launchDate": "2017-07-14",
      "launchSite": "TYMSC",
      "opsStatus": "+",
      "tle1": "1 42826U 17042B   26183.73669851  .00007864  00000+0  43300-3 0  9998",
      "tle2": "2 42826  97.4458 351.1071 0007673  39.4225 320.7564 15.14270274489581"
    },
    {
      "noradId": 42828,
      "name": "NORSAT 2",
      "intlDes": "2017-042D",
      "owner": "NOR",
      "launchDate": "2017-07-14",
      "launchSite": "TYMSC",
      "opsStatus": "+",
      "tle1": "1 42828U 17042D   26183.74005781  .00010557  00000+0  46158-3 0  9994",
      "tle2": "2 42828  97.4046 356.9365 0009256   5.2078 354.9253 15.22224512490108"
    },
    {
      "noradId": 48272,
      "name": "NORSAT 3",
      "intlDes": "2021-034E",
      "owner": "NOR",
      "launchDate": "2021-04-29",
      "launchSite": "FRGUI",
      "opsStatus": "+",
      "tle1": "1 48272U 21034E   26183.89669720  .00004019  00000+0  28426-3 0  9998",
      "tle2": "2 48272  97.5308 240.7896 0006021 241.2108 118.8514 15.05408848282205"
    },
    {
      "noradId": 51053,
      "name": "HYPSO-1",
      "intlDes": "2022-002BX",
      "owner": "NOR",
      "launchDate": "2022-01-13",
      "launchSite": "AFETR",
      "opsStatus": "+",
      "tle1": "1 51053U 22002BX  26183.85205334  .00076951  00000+0  55422-3 0  9998",
      "tle2": "2 51053  97.2820 265.5162 0003992 220.6161 139.4806 15.73339286249375"
    },
    {
      "noradId": 52161,
      "name": "ARCSAT-1",
      "intlDes": "2022-033E",
      "owner": "NOR",
      "launchDate": "2022-04-01",
      "launchSite": "AFETR",
      "opsStatus": "+",
      "tle1": "1 52161U 22033E   26183.71061834  .00012557  00000+0  19563-3 0  9991",
      "tle2": "2 52161  97.2756 276.2179 0006090 131.3040 228.8739 15.53993722238114"
    },
    {
      "noradId": 55015,
      "name": "BIRKELAND",
      "intlDes": "2023-001G",
      "owner": "NOR",
      "launchDate": "2023-01-03",
      "launchSite": "AFETR",
      "opsStatus": "+",
      "tle1": "1 55015U 23001G   26183.86891434  .00010348  00000+0  25813-3 0  9992",
      "tle2": "2 55015  97.3338 251.8809 0007673  60.1547 300.0461 15.40357251194764"
    },
    {
      "noradId": 55093,
      "name": "HUYGENS",
      "intlDes": "2023-001CN",
      "owner": "NOR",
      "launchDate": "2023-01-03",
      "launchSite": "AFETR",
      "opsStatus": "+",
      "tle1": "1 55093U 23001CN  26183.86899149  .00010169  00000+0  25357-3 0  9993",
      "tle2": "2 55093  97.3242 251.0904 0009863  36.9409 323.2515 15.40354232194788"
    },
    {
      "noradId": 60422,
      "name": "ASBM-1",
      "intlDes": "2024-143A",
      "owner": "NOR",
      "launchDate": "2024-08-12",
      "launchSite": "AFWTR",
      "opsStatus": "+",
      "tle1": "1 60422U 24143A   26177.80308853 -.00000142  00000+0  00000+0 0  9992",
      "tle2": "2 60422  62.8646  45.1001 5612580 269.3270  29.5737  1.50429047 11765"
    },
    {
      "noradId": 60423,
      "name": "ASBM-2",
      "intlDes": "2024-143B",
      "owner": "NOR",
      "launchDate": "2024-08-12",
      "launchSite": "AFWTR",
      "opsStatus": "+",
      "tle1": "1 60423U 24143B   26182.78939448 -.00000098  00000+0  00000+0 0  9996",
      "tle2": "2 60423  62.8582  44.9742 5617301 269.5081  29.4266  1.50423767 11828"
    },
    {
      "noradId": 60531,
      "name": "HYPSO-2",
      "intlDes": "2024-149BR",
      "owner": "NOR",
      "launchDate": "2024-08-16",
      "launchSite": "AFWTR",
      "opsStatus": "+",
      "tle1": "1 60531U 24149BR  26183.48889800  .00003900  00000+0  32777-3 0  9990",
      "tle2": "2 60531  97.6816 259.5254 0001569 116.9924 243.1459 14.98867281102341"
    },
    {
      "noradId": 60543,
      "name": "ARCTIC WEATHER SATELLITE",
      "intlDes": "2024-149CD",
      "owner": "NOR",
      "launchDate": "2024-08-16",
      "launchSite": "AFWTR",
      "opsStatus": "+",
      "tle1": "1 60543U 24149CD  26183.46725715  .00001202  00000+0  13084-3 0  9998",
      "tle2": "2 60543  97.6797 253.4958 0003551  74.9350 285.2260 14.89809395101578"
    },
    {
      "noradId": 62702,
      "name": "NORSAT 4",
      "intlDes": "2025-009CX",
      "owner": "NOR",
      "launchDate": "2025-01-14",
      "launchSite": "AFWTR",
      "opsStatus": "+",
      "tle1": "1 62702U 25009CX  26183.77293586  .00002655  00000+0  24740-3 0  9997",
      "tle2": "2 62702  97.7048 262.2062 0001839  39.1007 321.0346 14.95103206 79696"
    },
    {
      "noradId": 63252,
      "name": "ARVAKER-1",
      "intlDes": "2025-052AU",
      "owner": "NOR",
      "launchDate": "2025-03-15",
      "launchSite": "AFWTR",
      "opsStatus": "+",
      "tle1": "1 63252U 25052AU  26183.41362941  .00002129  00000+0  20184-3 0  9993",
      "tle2": "2 63252  97.6855  74.2999 0003023 138.6849 221.4600 14.94619500 70884"
    },
    {
      "noradId": 64566,
      "name": "ARVAKER-3",
      "intlDes": "2025-135AQ",
      "owner": "NOR",
      "launchDate": "2025-06-23",
      "launchSite": "AFWTR",
      "opsStatus": "+",
      "tle1": "1 64566U 25135AQ  26183.83396380  .00002285  00000+0  22153-3 0  9995",
      "tle2": "2 64566  97.7743 297.7863 0000800 208.3267 151.7909 14.93677268 56213"
    },
    {
      "noradId": 64567,
      "name": "ARVAKER-2",
      "intlDes": "2025-135AR",
      "owner": "NOR",
      "launchDate": "2025-06-23",
      "launchSite": "AFWTR",
      "opsStatus": "+",
      "tle1": "1 64567U 25135AR  26183.84413501  .00002588  00000+0  25056-3 0  9993",
      "tle2": "2 64567  97.7753 297.8284 0000429 184.9243 175.1972 14.93615046 56219"
    },
    {
      "noradId": 68454,
      "name": "AISSAT 4",
      "intlDes": "2026-067AQ",
      "owner": "NOR",
      "launchDate": "2026-03-30",
      "launchSite": "AFWTR",
      "opsStatus": "+",
      "tle1": "1 68454U 26067AQ  26183.60478750  .00007286  00000+0  36161-3 0  9997",
      "tle2": "2 68454  97.4584 141.7910 0006031  32.4510 327.7094 15.17981160 14279"
    },
    {
      "noradId": 68490,
      "name": "MIMIR 1",
      "intlDes": "2026-067CC",
      "owner": "NOR",
      "launchDate": "2026-03-30",
      "launchSite": "AFWTR",
      "opsStatus": "+",
      "tle1": "1 68490U 26067CC  26183.64511095  .00001912  00000+0  19982-3 0  9993",
      "tle2": "2 68490  97.7617 141.5962 0002342  24.9119 335.2211 14.90836773 14023"
    }
  ]
}